[{"OBJECT_NAME":"YUBILEINY (RS30)","OBJECT_ID":"2008-025A","EPOCH":"2026-03-09T22:46:58.600704","MEAN_MOTION":12.43175945,"ECCENTRICITY":0.0019539,"INCLINATION":82.5001,"RA_OF_ASC_NODE":57.1609,"ARG_OF_PERICENTER":164.6733,"MEAN_ANOMALY":195.4942,"EPHEMERIS_TYPE":0,"CLASSIFICATION_TYPE":"U","NORAD_CAT_ID":32953,"ELEMENT_SET_NO":999,"REV_AT_EPOCH":80736,"BSTAR":0.00012405004,"MEAN_MOTION_DOT":2.7e-7,"MEAN_MOTION_DDOT":0},{"OBJECT_NAME":"COSMOS 829","OBJECT_ID":"1976-054E","EPOCH":"2026-03-09T20:24:24.099552","MEAN_MOTION":12.48678926,"ECCENTRICITY":0.00262907,"INCLINATION":73.9986,"RA_OF_ASC_NODE":116.2786,"ARG_OF_PERICENTER":320.4443,"MEAN_ANOMALY":214.1421,"EPHEMERIS_TYPE":0,"CLASSIFICATION_TYPE":"U","NORAD_CAT_ID":8893,"ELEMENT_SET_NO":999,"REV_AT_EPOCH":26688,"BSTAR":5.586569e-6,"MEAN_MOTION_DOT":-1.5e-7,"MEAN_MOTION_DDOT":0}]
